{
  "type": "FeatureCollection",
  "features": [
    {
      "type": "Feature",
      "properties": {
        "norad_id": 38709,
        "name": "EXACTVIEW-1 (ADS-1B)",
        "group": "resource",
        "lat": 34.16950743770164,
        "lon": 90.20867285466612,
        "alt_km": 801.0392518243189,
        "timestamp": "2025-12-13T22:39:29.364959+00:00",
        "meta_object_name": "EXACTVIEW-1 (ADS-1B)",
        "meta_object_id": "2012-039C",
        "meta_epoch": "2025-12-13T07:19:44.395680",
        "meta_mean_motion": 14.24908543,
        "meta_eccentricity": 0.0010645,
        "meta_inclination": 98.9636,
        "meta_ra_of_asc_node": 95.7073,
        "meta_arg_of_pericenter": 352.5587,
        "meta_mean_anomaly": 7.5432,
        "meta_ephemeris_type": 0,
        "meta_classification_type": "U",
        "meta_norad_cat_id": 38709,
        "meta_element_set_no": 999,
        "meta_rev_at_epoch": 69623,
        "meta_bstar": 0.00013384563,
        "meta_mean_motion_dot": 2.66e-06,
        "meta_mean_motion_ddot": 0,
        "tle_line1": "1 38709U 12039C   25347.30537495  .00000266  00000+0  13385-3 0  9995",
        "tle_line2": "2 38709  98.9636  95.7073 0010645 352.5587   7.5432 14.24908543696239"
      },
      "geometry": {
        "type": "Point",
        "coordinates": [
          90.20867285466612,
          34.16950743770164
        ]
      }
    },
    {
      "type": "Feature",
      "properties": {
        "norad_id": 38755,
        "name": "SPOT 6",
        "group": "resource",
        "lat": -28.608039539170253,
        "lon": -131.7805177625357,
        "alt_km": 703.8540503101513,
        "timestamp": "2025-12-13T22:39:29.364969+00:00",
        "meta_object_name": "SPOT 6",
        "meta_object_id": "2012-047A",
        "meta_epoch": "2025-12-13T06:53:10.974912",
        "meta_mean_motion": 14.58605051,
        "meta_eccentricity": 0.00011434,
        "meta_inclination": 98.1567,
        "meta_ra_of_asc_node": 52.061,
        "meta_arg_of_pericenter": 97.4821,
        "meta_mean_anomaly": 262.6508,
        "meta_ephemeris_type": 0,
        "meta_classification_type": "U",
        "meta_norad_cat_id": 38755,
        "meta_element_set_no": 999,
        "meta_rev_at_epoch": 70595,
        "meta_bstar": 0.00020017307,
        "meta_mean_motion_dot": 8.86e-06,
        "meta_mean_motion_ddot": 0,
        "tle_line1": "1 38755U 12047A   25347.28693258  .00000886  00000+0  20017-3 0  9990",
        "tle_line2": "2 38755  98.1567  52.0610 0001143  97.4821 262.6508 14.58605051705950"
      },
      "geometry": {
        "type": "Point",
        "coordinates": [
          -131.7805177625357,
          -28.608039539170253
        ]
      }
    },
    {
      "type": "Feature",
      "properties": {
        "norad_id": 39019,
        "name": "PLEIADES 1B",
        "group": "resource",
        "lat": 71.01681572392113,
        "lon": -94.71041356435744,
        "alt_km": 690.1949923404181,
        "timestamp": "2025-12-13T22:39:29.364979+00:00",
        "meta_object_name": "PLEIADES 1B",
        "meta_object_id": "2012-068A",
        "meta_epoch": "2025-12-13T07:21:02.763072",
        "meta_mean_motion": 14.58554658,
        "meta_eccentricity": 0.0001214,
        "meta_inclination": 98.1788,
        "meta_ra_of_asc_node": 59.9485,
        "meta_arg_of_pericenter": 83.8238,
        "meta_mean_anomaly": 276.31,
        "meta_ephemeris_type": 0,
        "meta_classification_type": "U",
        "meta_norad_cat_id": 39019,
        "meta_element_set_no": 999,
        "meta_rev_at_epoch": 69375,
        "meta_bstar": 0.00019861787,
        "meta_mean_motion_dot": 8.78e-06,
        "meta_mean_motion_ddot": 0,
        "tle_line1": "1 39019U 12068A   25347.30628198  .00000878  00000+0  19862-3 0  9998",
        "tle_line2": "2 39019  98.1788  59.9485 0001214  83.8238 276.3100 14.58554658693755"
      },
      "geometry": {
        "type": "Point",
        "coordinates": [
          -94.71041356435744,
          71.01681572392113
        ]
      }
    },
    {
      "type": "Feature",
      "properties": {
        "norad_id": 39030,
        "name": "GOKTURK 2",
        "group": "resource",
        "lat": 34.4494551509848,
        "lon": -175.77986445943236,
        "alt_km": 641.7453543181073,
        "timestamp": "2025-12-13T22:39:29.364990+00:00",
        "meta_object_name": "GOKTURK 2",
        "meta_object_id": "2012-073A",
        "meta_epoch": "2025-12-13T07:51:02.916576",
        "meta_mean_motion": 14.75292668,
        "meta_eccentricity": 0.00010042,
        "meta_inclination": 97.6897,
        "meta_ra_of_asc_node": 188.9518,
        "meta_arg_of_pericenter": 105.2609,
        "meta_mean_anomaly": 254.8712,
        "meta_ephemeris_type": 0,
        "meta_classification_type": "U",
        "meta_norad_cat_id": 39030,
        "meta_element_set_no": 999,
        "meta_rev_at_epoch": 69710,
        "meta_bstar": 0.00017489254,
        "meta_mean_motion_dot": 1.137e-05,
        "meta_mean_motion_ddot": 0,
        "tle_line1": "1 39030U 12073A   25347.32711709  .00001137  00000+0  17489-3 0  9992",
        "tle_line2": "2 39030  97.6897 188.9518 0001004 105.2609 254.8712 14.75292668697103"
      },
      "geometry": {
        "type": "Point",
        "coordinates": [
          -175.77986445943236,
          34.4494551509848
        ]
      }
    },
    {
      "type": "Feature",
      "properties": {
        "norad_id": 39084,
        "name": "LANDSAT 8",
        "group": "resource",
        "lat": -81.732868839045,
        "lon": 139.37201049182443,
        "alt_km": 710.6170322223388,
        "timestamp": "2025-12-13T22:39:29.364999+00:00",
        "meta_object_name": "LANDSAT 8",
        "meta_object_id": "2013-008A",
        "meta_epoch": "2025-12-13T06:35:08.757024",
        "meta_mean_motion": 14.57115114,
        "meta_eccentricity": 0.00010887,
        "meta_inclination": 98.2073,
        "meta_ra_of_asc_node": 55.34,
        "meta_arg_of_pericenter": 88.9615,
        "meta_mean_anomaly": 271.1708,
        "meta_ephemeris_type": 0,
        "meta_classification_type": "U",
        "meta_norad_cat_id": 39084,
        "meta_element_set_no": 999,
        "meta_rev_at_epoch": 67082,
        "meta_bstar": 0.00016378408,
        "meta_mean_motion_dot": 6.93e-06,
        "meta_mean_motion_ddot": 0,
        "tle_line1": "1 39084U 13008A   25347.27440691  .00000693  00000+0  16378-3 0  9995",
        "tle_line2": "2 39084  98.2073  55.3400 0001088  88.9615 271.1708 14.57115114670825"
      },
      "geometry": {
        "type": "Point",
        "coordinates": [
          139.37201049182443,
          -81.732868839045
        ]
      }
    },
    {
      "type": "Feature",
      "properties": {
        "norad_id": 39086,
        "name": "SARAL",
        "group": "resource",
        "lat": 28.31641538121242,
        "lon": -3.49182631662875,
        "alt_km": 779.7803596567228,
        "timestamp": "2025-12-13T22:39:29.365010+00:00",
        "meta_object_name": "SARAL",
        "meta_object_id": "2013-009A",
        "meta_epoch": "2025-12-13T06:52:13.388448",
        "meta_mean_motion": 14.32757372,
        "meta_eccentricity": 0.00028784,
        "meta_inclination": 98.5503,
        "meta_ra_of_asc_node": 171.2096,
        "meta_arg_of_pericenter": 107.6803,
        "meta_mean_anomaly": 252.4695,
        "meta_ephemeris_type": 0,
        "meta_classification_type": "U",
        "meta_norad_cat_id": 39086,
        "meta_element_set_no": 999,
        "meta_rev_at_epoch": 66898,
        "meta_bstar": 9.4304164e-05,
        "meta_mean_motion_dot": 2.13e-06,
        "meta_mean_motion_ddot": 0,
        "tle_line1": "1 39086U 13009A   25347.28626607  .00000213  00000+0  94304-4 0  9996",
        "tle_line2": "2 39086  98.5503 171.2096 0002878 107.6803 252.4695 14.32757372668985"
      },
      "geometry": {
        "type": "Point",
        "coordinates": [
          -3.49182631662875,
          28.31641538121242
        ]
      }
    },
    {
      "type": "Feature",
      "properties": {
        "norad_id": 39150,
        "name": "GAOFEN-1",
        "group": "resource",
        "lat": 60.66140282878011,
        "lon": -107.05492174754755,
        "alt_km": 622.3714068875397,
        "timestamp": "2025-12-13T22:39:29.365020+00:00",
        "meta_object_name": "GAOFEN-1",
        "meta_object_id": "2013-018A",
        "meta_epoch": "2025-12-13T07:29:12.842880",
        "meta_mean_motion": 14.76538626,
        "meta_eccentricity": 0.00183032,
        "meta_inclination": 97.9323,
        "meta_ra_of_asc_node": 57.9609,
        "meta_arg_of_pericenter": 141.2306,
        "meta_mean_anomaly": 219.0221,
        "meta_ephemeris_type": 0,
        "meta_classification_type": "U",
        "meta_norad_cat_id": 39150,
        "meta_element_set_no": 999,
        "meta_rev_at_epoch": 68081,
        "meta_bstar": 0.00029642205,
        "meta_mean_motion_dot": 2.021e-05,
        "meta_mean_motion_ddot": 0,
        "tle_line1": "1 39150U 13018A   25347.31195420  .00002021  00000+0  29642-3 0  9997",
        "tle_line2": "2 39150  97.9323  57.9609 0018303 141.2306 219.0221 14.76538626680819"
      },
      "geometry": {
        "type": "Point",
        "coordinates": [
          -107.05492174754755,
          60.66140282878011
        ]
      }
    }
  ]
}